GLOBALSTAR M067 [+]     
1 32263U 07048A   23282.60218980 -.00000078  00000+0  14752-3 0  9993
2 32263  51.9749  40.0418 0001605 105.2472 268.5581 12.40632607732955
GLOBALSTAR M070 [+]     
1 32264U 07048B   23282.94465394 -.00000084  00000+0  10849-3 0  9994
2 32264  51.9744 205.7627 0000554 100.8491 335.7001 12.62279594735848
GLOBALSTAR M066 [+]     
1 32265U 07048C   23282.73018264 -.00000073  00000+0  17367-3 0  9992
2 32265  51.9676  68.4811 0001054  70.3301 304.0050 12.62265766738087
GLOBALSTAR M068 [-]     
1 32266U 07048D   23282.73838191 -.00000070  00000+0  18932-3 0  9998
2 32266  51.9911  21.3049 0000827 174.4982 307.1616 12.62767530739673
GLOBALSTAR M079 [+]     
1 37188U 10054A   23282.79911209 -.00000097  00000+0  35061-4 0  9997
2 37188  52.0031 216.1708 0000778  56.4161 321.1094 12.62268567598614
GLOBALSTAR M074 [+]     
1 37189U 10054B   23282.54262660 -.00000101  00000+0  15123-4 0  9994
2 37189  52.0007 216.3694 0000638  70.1546 101.5960 12.62270412599254
GLOBALSTAR M076 [+]     
1 37190U 10054C   23282.24745868 -.00000091  00000+0  72381-4 0  9996
2 37190  52.0022 217.3829 0001176  75.0152  74.8427 12.62261932598862
GLOBALSTAR M077 [+]     
1 37191U 10054D   23282.86193112 -.00000076  00000+0  15598-3 0  9993
2 37191  52.0061 172.1937 0000767  80.3082  41.8748 12.62267299599313
